IRIDIUM 36              
1 24967U 97056C   24355.45573754  .00000737  00000+0  24063-3 0  9998
2 24967  86.3969 248.0330 0001910  84.9677 275.1738 14.37300606426547
IRIDIUM 38              
1 25043U 97069E   24355.40199095  .00000986  00000+0  32124-3 0  9998
2 25043  86.3953 308.3968 0002104  35.2335 324.9002 14.37790453420262
IRIDIUM 42              
1 25077U 97077A   24355.39908430  .00000906  00000+0  30519-3 0  9991
2 25077  86.3958 314.3486 0002221  68.2299 291.9134 14.36050548415537
IRIDIUM 44              
1 25078U 97077B   24355.55693779  .00000883  00000+0  27471-3 0  9994
2 25078  86.3951 296.6733 0000535 118.1568 241.9685 14.39919828417994
IRIDIUM 45              
1 25104U 97082A   24355.42070705  .00023492  00000+0  10564-2 0  9999
2 25104  86.3631 134.1077 0135636 277.4455  81.1390 15.13016123424928
IRIDIUM 24              
1 25105U 97082B   24355.48068109  .00000977  00000+0  29356-3 0  9994
2 25105  86.3925 156.0561 0009951 315.9968  44.0439 14.41742735417461
IRIDIUM 51              
1 25262U 98018A   24355.49614629  .00041685  00000+0  14005-2 0  9998
2 25262  86.3912 143.2576 0114797 209.6515 149.8193 15.24459183419666
